MOLNIYA 2-9             
1 07276U 74026A   22274.07399079  .00000127  00000+0  00000+0 0  9990
2 07276  64.2791 212.4957 6439007 279.9943  17.6828  2.45097383251804
MOLNIYA 2-10            
1 07376U 74056A   22273.81034244 -.00000262  00000+0  00000+0 0  9996
2 07376  64.2461  83.8424 6747506 285.8828  13.6910  2.01065011352470
MOLNIYA 1-S             
1 07392U 74060A   22275.49354019  .00000061  00000+0  00000+0 0  9996
2 07392   4.8520 281.3344 0011532 214.9882 111.0121  1.00209145120599
MOLNIYA 1-29            
1 07780U 75036A   22274.34989803 -.00000010  00000+0 -68520-1 0  9998
2 07780  63.4145 203.5104 6863771 288.4187  12.2656  2.00617233347749
MOLNIYA 2-14            
1 08195U 75081A   22274.07742299  .00000014  00000+0  00000+0 0  9994
2 08195  63.3790 176.7005 6774336 292.6326  11.7562  2.02057429345022
MOLNIYA 1-32            
1 08601U 76006A   22274.00570794 -.00000992  00000+0 -11688-2 0  9990
2 08601  63.4785 283.0056 7219305 283.8949  11.1751  1.99970368 54775
MOLNIYA 1-36            
1 09880U 77021A   22275.44833926 -.00000874  00000+0  00000+0 0  9997
2 09880  63.5079 254.5617 7139429 289.6431  10.2882  2.00878494231510
MOLNIYA 3-8             
1 10455U 77105A   22275.18009297 -.00001081  00000+0  49473-3 0  9999
2 10455  63.4192 341.6539 7361028 282.3450  10.8372  2.00783991329288
MOLNIYA 1-40            
1 10925U 78055A   22274.38487409  .00000063  00000+0  00000+0 0  9999
2 10925  63.4380  33.0554 7267936 280.6888  11.8615  2.00738287324809
MOLNIYA 3-10            
1 11057U 78095A   22275.21252576 -.00000271  00000+0 -87131-3 0  9995
2 11057  63.2057 359.9654 5788284 311.1179  11.7544  4.09856847388108
MOLNIYA 3-13            
1 11896U 80063A   22273.63321537  .00000162  00000+0  00000+0 0  9995
2 11896  62.7224 123.9503 7118062 276.4237  13.9688  2.00663881309202
MOLNIYA 1-49            
1 12156U 81009A   22274.65876472 -.00001060  00000+0 -14869-2 0  9993
2 12156  61.6944 149.2773 7289211 263.8750  16.8166  2.05711589223677
MOLNIYA 1-52            
1 13012U 81123A   22275.03381206  .00000698  00000+0  10296-1 0  9994
2 13012  61.6744 263.3747 7226777 256.2532  20.5994  2.00381483298717
MOLNIYA 1-53            
1 13070U 82015A   22274.74058280 -.00001182  00000+0 -11693-1 0  9992
2 13070  62.6020 201.1497 7013025 282.9206  12.8187  2.00658720297397
MOLNIYA 3-20            
1 13875U 83015A   22273.29344638  .00001512  00000+0  15626-2 0  9996
2 13875  62.6826 336.1683 7399595 259.0481  17.6524  2.00605224225816
MOLNIYA 1-56            
1 13890U 83019A   22274.72366681 -.00000824  00000+0  36292-3 0  9997
2 13890  62.9269   1.0201 7453329 264.9780  15.0176  1.99863532288723
MOLNIYA 1-63            
1 15429U 84124A   22273.59479181  .00000362  00000+0  00000+0 0  9999
2 15429  63.7604 157.7016 6662475 258.9521 273.7249  2.00862396276863
MOLNIYA 3-24            
1 15738U 85040A   22274.95659083 -.00000053  00000+0 -18924-2 0  9998
2 15738  63.6502  62.8681 6834044 247.2399  30.5151  2.55627108306598
MOLNIYA 3-27            
1 16393U 85117A   22271.80626159 -.00000001  00000+0  00000+0 0  9995
2 16393  64.3727  67.9806 7012086 247.8048  27.9606  2.12396805276377
MOLNIYA 1-69            
1 17078U 86089A   22274.02369881  .00000309  00000+0  00000+0 0  9998
2 17078  63.9867 176.5522 6664360 257.3408  25.9641  2.00677915262949
MOLNIYA 3-31            
1 17328U 87008A   22274.62916269  .00000400  00000+0  00000+0 0  9994
2 17328  63.6946 115.9865 7076421 253.5786  23.6530  2.00648005257991
MOLNIYA 1-71            
1 18946U 88017A   22274.57256508 -.00000257  00000+0  00000+0 0  9990
2 18946  63.3920 109.5590 7189067 256.3479  21.0255  2.00617754253182
MOLNIYA 1-75            
1 19807U 89014A   22274.30098947  .00000002  00000+0  00000+0 0  9994
2 19807  64.0278 273.0151 6829705 266.5483  19.7097  2.00580279246125
MOLNIYA 1-80            
1 21118U 91012A   22273.87137636  .00000926  00000+0  00000+0 0  9998
2 21118  65.1959 321.4811 6773891 276.2824  16.5151  2.05234899233146
MOLNIYA 3-40            
1 21196U 91022A   22274.24419290  .00000545  00000+0  00000+0 0  9993
2 21196  65.1027 315.0763 6802367 273.0996  17.4053  2.03017844231831
MOLNIYA 1-81            
1 21426U 91043A   22275.20022932 -.00000024  00000+0  00000+0 0  9995
2 21426  64.0764 330.5265 7089604 266.4233  17.5482  2.00635344229308
MOLNIYA 3-41            
1 21706U 91065A   22273.12319928 -.00000803  00000+0  00000+0 0  9998
2 21706  64.0935 154.6074 6869610 254.9210  25.1426  2.04354476229009
MOLNIYA 3-42            
1 22178U 92067A   22274.04232541  .00000190  00000+0  00000+0 0  9990
2 22178  64.6722 204.8492 6422255 265.3541  24.0951  2.20435384 82383
MOLNIYA 1-86            
1 22671U 93035A   22275.51306098  .00000478  00000+0  67764-3 0  9999
2 22671  63.0751 174.6676 4862911   8.7323 357.4050  5.62725334358325
MOLNIYA 1-87            
1 22949U 93079A   22275.51959448 -.00000451  00000+0  00000+0 0  9996
2 22949  64.0627  79.9723 6891123 283.7381  13.3870  2.02882123 77107
MOLNIYA 1-88            
1 23420U 94081A   22274.92304663  .00000093  00000+0  00000+0 0  9993
2 23420  64.2765 172.2550 5797460 281.0895  22.1728  3.34495655117269
MOLNIYA 3-47            
1 23642U 95042A   22273.74108592 -.00000044  00000+0  00000+0 0  9996
2 23642  64.1754  61.8529 6939134 284.0054  13.0390  2.01922370199141
MOLNIYA 1-90            
1 24960U 97054A   22274.78057022  .00000110  00000+0 -35546-3 0  9992
2 24960  63.6561 138.6064 6105256 297.9700  13.9842  3.18687305211391
MOLNIYA 1-91            
1 25485U 98054A   22275.26163777  .00000184  00000+0  22925-2 0  9991
2 25485  63.0527 133.6208 6771202 291.8834 241.9803  2.36442278180905
MOLNIYA 3-50            
1 25847U 99036A   22275.17226846  .00000071  00000+0 -13500-2 0  9996
2 25847  63.2480 318.0167 7362962 282.2716  10.7748  2.00670059170251
